SIRION PATHFINDER-2     
1 43759U 18099B   26129.06444220  .00004097  00000+0  22772-3 0  9999
2 43759  97.4283 179.0564 0010461  79.3272 280.9137 15.14193108406707
CORVUS BC4              
1 43767U 18099K   26129.08457701  .00003565  00000+0  21011-3 0  9992
2 43767  97.4098 173.2129 0009695 130.2612 229.9468 15.12176624406493
M2 PATHFINDER           
1 45727U 20037E   26129.07483197  .00002538  00000+0  18566-3 0  9992
2 45727  97.8167 319.8687 0010429 287.0516  72.9566 15.04506011319610
NETSAT-4                
1 46504U 20068U   26128.95938072  .00016235  00000+0  37514-3 0  9996
2 46504  97.8628 134.0905 0007701 100.7300 259.4814 15.42577049309727
NETSAT-3                
1 46505U 20068V   26128.99975032  .00016751  00000+0  40312-3 0  9991
2 46505  97.8673 132.4022 0007440 113.3153 246.8875 15.41345912309645
NETSAT-1                
1 46506U 20068W   26128.93516109  .00012219  00000+0  37726-3 0  9992
2 46506  97.8760 127.1149 0006528 132.4507 227.7287 15.33696745309284
NETSAT-2                
1 46507U 20068X   26128.98389125  .00020353  00000+0  44242-3 0  9993
2 46507  97.8641 133.8798 0006038 120.8470 239.3372 15.44358384309687
GREENCUBE (IO-117)      
1 53109U 22080E   26127.87446985 -.00000003  00000+0  00000+0 0  9991
2 53109  70.1441 312.2716 0008862 299.1563  60.8210  6.42583336 89473
SITRO-AIS 5 (KATYS)     
1 57176U 23091L   26129.19533788  .00009579  00000+0  34678-3 0  9995
2 57176  97.5079 192.7476 0010420 234.1855 125.8416 15.28570463158389
SITRO-AIS 6 (CHIRKIN)   
1 57192U 23091AC  26129.15208926  .00004649  00000+0  18778-3 0  9998
2 57192  97.5087 192.0248 0010602 238.4643 121.5560 15.25222549158334
SITRO-AIS 8 (ANOKHIN)   
1 57193U 23091AD  26129.14768875  .00010389  00000+0  34791-3 0  9993
2 57193  97.5073 194.1349 0009720 229.5526 130.4868 15.31094440158474
SITRO-AIS 7 (FARTUSHNIY)
1 57194U 23091AE  26129.14749932  .00005511  00000+0  22396-3 0  9996
2 57194  97.5085 191.8647 0010408 239.6232 120.3977 15.24930806158324
SITRO-AIS 10 (BURDAEV)  
1 57199U 23091AK  26129.14270576  .00016345  00000+0  45086-3 0  9992
2 57199  97.5094 198.7954 0006675 199.3863 160.7128 15.37159842158760
SITRO-AIS 9 (SHCHUKIN)  
1 57201U 23091AM  26129.15727922  .00015961  00000+0  44675-3 0  9995
2 57201  97.5092 198.5696 0006894 199.9378 160.1597 15.36708006158757
SITRO-AIS 12 (SMIRENNIY)
1 57204U 23091AQ  26129.15518038  .00016221  00000+0  44989-3 0  9992
2 57204  97.5105 199.0106 0006687 193.7193 166.3871 15.36990760158779
SITRO-AIS 11 (SHEFFER)  
1 57208U 23091AU  26129.17891064  .00015721  00000+0  43067-3 0  9991
2 57208  97.5102 199.2579 0006615 193.2138 166.8934 15.37382217158791
SITRO-AIS 25            
1 59066U 24039R   26129.17820051  .00004469  00000+0  34739-3 0  9999
2 59066  95.3918 208.2912 0147656 104.3482 257.4187 14.93238209118902
SITRO-AIS 26            
1 59067U 24039S   26129.17433644  .00004608  00000+0  35967-3 0  9997
2 59067  95.3918 208.1941 0147984 104.8928 256.8739 14.93041004118897
SITRO-AIS 27            
1 59068U 24039T   26129.22241205  .00004487  00000+0  34748-3 0  9995
2 59068  95.3916 208.4809 0146959 103.4746 258.2904 14.93449439118924
SITRO-AIS 28            
1 59071U 24039U   26129.13374943  .00003800  00000+0  29452-3 0  9999
2 59071  95.3920 208.4653 0146745 103.6065 258.1553 14.93485288118919
GRBBETA                 
1 60237U 24128C   26129.19120141  .00002946  00000+0  20948-3 0  9990
2 60237  61.9913 353.0501 0045729 126.5070 234.0248 15.06321555100393
OOV-CUBE (TUBSAT-30)    
1 60240U 24128F   26128.99435892  .00001927  00000+0  15631-3 0  9994
2 60240  61.9964   2.2162 0049281 125.1581 235.4142 15.02576587100221
ROBUSTA-3A (MEDITERRAN*)
1 60243U 24128J   26129.09992152  .00006807  00000+0  40738-3 0  9994
2 60243  61.9878 346.4052 0046622 120.2962 240.2759 15.11069390100513
LASARSAT                
1 62391U 24247Q   26128.40835912  .00026509  00000+0  57535-3 0  9990
2 62391  44.9737 125.3066 0004564  82.0507 278.0899 15.43952708 77169
CROCUBE                 
1 62394U 24247T   26128.70880433  .00031054  00000+0  63709-3 0  9995
2 62394  44.9720 121.5399 0004132  85.4811 274.6551 15.45536838 77236
FORESAIL-1 PRIME        
1 66778U 25276DS  26129.18372038  .00003448  00000+0  17119-3 0  9998
2 66778  97.4205 203.1772 0001395 202.3673 157.7500 15.18345322 24483
KNACKSAT-2              
1 67683U 98067XZ  26129.16405308  .00034412  00000+0  47676-3 0  9993
2 67683  51.6280 130.2341 0012675  53.9703 306.2461 15.56659473 14194
