OBJECT_NAME,OBJECT_ID,EPOCH,MEAN_MOTION,ECCENTRICITY,INCLINATION,RA_OF_ASC_NODE,ARG_OF_PERICENTER,MEAN_ANOMALY,EPHEMERIS_TYPE,CLASSIFICATION_TYPE,NORAD_CAT_ID,ELEMENT_SET_NO,REV_AT_EPOCH,BSTAR,MEAN_MOTION_DOT,MEAN_MOTION_DDOT
SIRION PATHFINDER-2,2018-099B,2026-05-09T01:32:47.806080,15.14193108,.0010461,97.4283,179.0564,79.3272,280.9137,0,U,43759,999,40670,.22772E-3,.4097E-4,0
CORVUS BC4,2018-099K,2026-05-09T02:01:47.453664,15.12176624,.0009695,97.4098,173.2129,130.2612,229.9468,0,U,43767,999,40649,.21011E-3,.3565E-4,0
M2 PATHFINDER,2020-037E,2026-05-09T01:47:45.482208,15.04506011,.0010429,97.8167,319.8687,287.0516,72.9566,0,U,45727,999,31961,.18566E-3,.2538E-4,0
NETSAT-4,2020-068U,2026-05-08T23:01:30.494208,15.42577049,.0007701,97.8628,134.0905,100.7300,259.4814,0,U,46504,999,30972,.37514E-3,.16235E-3,0
NETSAT-3,2020-068V,2026-05-08T23:59:38.427648,15.41345912,.000744,97.8673,132.4022,113.3153,246.8875,0,U,46505,999,30964,.40312E-3,.16751E-3,0
NETSAT-1,2020-068W,2026-05-08T22:26:37.918176,15.33696745,.0006528,97.8760,127.1149,132.4507,227.7287,0,U,46506,999,30928,.37726E-3,.12219E-3,0
NETSAT-2,2020-068X,2026-05-08T23:36:48.204000,15.44358384,.0006038,97.8641,133.8798,120.8470,239.3372,0,U,46507,999,30968,.44242E-3,.20353E-3,0
GREENCUBE (IO-117),2022-080E,2026-05-07T20:59:14.195040,6.42583336,.0008862,70.1441,312.2716,299.1563,60.8210,0,U,53109,999,8947,0,-.3E-7,0
SITRO-AIS 5 (KATYS),2023-091L,2026-05-09T04:41:17.192832,15.28570463,.001042,97.5079,192.7476,234.1855,125.8416,0,U,57176,999,15838,.34678E-3,.9579E-4,0
SITRO-AIS 6 (CHIRKIN),2023-091AC,2026-05-09T03:39:00.512064,15.25222549,.0010602,97.5087,192.0248,238.4643,121.5560,0,U,57192,999,15833,.18778E-3,.4649E-4,0
SITRO-AIS 8 (ANOKHIN),2023-091AD,2026-05-09T03:32:40.308000,15.31094440,.000972,97.5073,194.1349,229.5526,130.4868,0,U,57193,999,15847,.34791E-3,.10389E-3,0
SITRO-AIS 7 (FARTUSHNIY),2023-091AE,2026-05-09T03:32:23.941248,15.24930806,.0010408,97.5085,191.8647,239.6232,120.3977,0,U,57194,999,15832,.22396E-3,.5511E-4,0
SITRO-AIS 10 (BURDAEV),2023-091AK,2026-05-09T03:25:29.777664,15.37159842,.0006675,97.5094,198.7954,199.3863,160.7128,0,U,57199,999,15876,.45086E-3,.16345E-3,0
SITRO-AIS 9 (SHCHUKIN),2023-091AM,2026-05-09T03:46:28.924608,15.36708006,.0006894,97.5092,198.5696,199.9378,160.1597,0,U,57201,999,15875,.44675E-3,.15961E-3,0
SITRO-AIS 12 (SMIRENNIY),2023-091AQ,2026-05-09T03:43:27.584832,15.36990760,.0006687,97.5105,199.0106,193.7193,166.3871,0,U,57204,999,15877,.44989E-3,.16221E-3,0
SITRO-AIS 11 (SHEFFER),2023-091AU,2026-05-09T04:17:37.879296,15.37382217,.0006615,97.5102,199.2579,193.2138,166.8934,0,U,57208,999,15879,.43067E-3,.15721E-3,0
SITRO-AIS 25,2024-039R,2026-05-09T04:16:36.524064,14.93238209,.0147656,95.3918,208.2912,104.3482,257.4187,0,U,59066,999,11890,.34739E-3,.4469E-4,0
SITRO-AIS 26,2024-039S,2026-05-09T04:11:02.668416,14.93041004,.0147984,95.3918,208.1941,104.8928,256.8739,0,U,59067,999,11889,.35967E-3,.4608E-4,0
SITRO-AIS 27,2024-039T,2026-05-09T05:20:16.401120,14.93449439,.0146959,95.3916,208.4809,103.4746,258.2904,0,U,59068,999,11892,.34748E-3,.4487E-4,0
SITRO-AIS 28,2024-039U,2026-05-09T03:12:35.950752,14.93485288,.0146745,95.3920,208.4653,103.6065,258.1553,0,U,59071,999,11891,.29452E-3,.38E-4,0
GRBBETA,2024-128C,2026-05-09T04:35:19.801824,15.06321555,.0045729,61.9913,353.0501,126.5070,234.0248,0,U,60237,999,10039,.20948E-3,.2946E-4,0
OOV-CUBE (TUBSAT-30),2024-128F,2026-05-08T23:51:52.610688,15.02576587,.0049281,61.9964,2.2162,125.1581,235.4142,0,U,60240,999,10022,.15631E-3,.1927E-4,0
ROBUSTA-3A (MEDITERRANEE),2024-128J,2026-05-09T02:23:53.219328,15.11069390,.0046622,61.9878,346.4052,120.2962,240.2759,0,U,60243,999,10051,.40738E-3,.6807E-4,0
LASARSAT,2024-247Q,2026-05-08T09:48:02.227968,15.43952708,.00045649,44.9737,125.3066,82.0507,278.0899,0,U,62391,999,7716,.57535081E-3,.26509E-3,0
CROCUBE,2024-247T,2026-05-08T17:00:40.694112,15.45536838,.00041324,44.9720,121.5399,85.4811,274.6551,0,U,62394,999,7723,.63708537E-3,.31054E-3,0
FORESAIL-1 PRIME,2025-276DS,2026-05-09T04:24:33.440832,15.18345322,.0001395,97.4205,203.1772,202.3673,157.7500,0,U,66778,999,2448,.17119E-3,.3448E-4,0
KNACKSAT-2,1998-067XZ,2026-05-09T03:56:14.186112,15.56659473,.0012675,51.6280,130.2341,53.9703,306.2461,0,U,67683,999,1419,.47676E-3,.34412E-3,0
